[{"OBJECT_NAME":"TECMS","OBJECT_ID":"2022-090A","EPOCH":"2026-03-09T23:23:02.255424","MEAN_MOTION":15.21523319,"ECCENTRICITY":0.00036997,"INCLINATION":97.323,"RA_OF_ASC_NODE":139.8482,"ARG_OF_PERICENTER":189.8561,"MEAN_ANOMALY":170.2604,"EPHEMERIS_TYPE":0,"CLASSIFICATION_TYPE":"U","NORAD_CAT_ID":53346,"ELEMENT_SET_NO":999,"REV_AT_EPOCH":19972,"BSTAR":0.00023961949,"MEAN_MOTION_DOT":5.328e-5,"MEAN_MOTION_DDOT":0},{"OBJECT_NAME":"JAY-D1","OBJECT_ID":"2025-009BN","EPOCH":"2026-03-09T21:48:23.402016","MEAN_MOTION":15.21620147,"ECCENTRICITY":0.00044203,"INCLINATION":97.4075,"RA_OF_ASC_NODE":149.8053,"ARG_OF_PERICENTER":349.1681,"MEAN_ANOMALY":10.9459,"EPHEMERIS_TYPE":0,"CLASSIFICATION_TYPE":"U","NORAD_CAT_ID":62669,"ELEMENT_SET_NO":999,"REV_AT_EPOCH":12127,"BSTAR":0.00024428159,"MEAN_MOTION_DOT":5.448e-5,"MEAN_MOTION_DDOT":0}]
